     2.10           N: GPS NAV DATA                         RINEX VERSION / TYPE
teqc  2012Sep13     UNAVCO Archive Ops  20121029 06:32:38UTCPGM / RUN BY / DATE
Solaris x86 5.10|AMD64|cc SC5.8 -xarch=amd64|=+|=+          COMMENT
                                                            END OF HEADER
 2 12 10 28 14  0  0.0 4.072762094438D-04 1.136868377216D-12 0.000000000000D+00
    6.000000000000D+01-3.284375000000D+01 5.108784229941D-09 1.253613376246D+00
   -1.581385731697D-06 1.154470047913D-02 9.519979357719D-06 5.153780765533D+03
    5.040000000000D+04-9.313225746155D-09 2.278158384635D+00 1.732259988785D-07
    9.386347916209D-01 1.866250000000D+02-2.728347921751D+00-8.356419506986D-09
   -7.843183842946D-10 1.000000000000D+00 1.712000000000D+03 0.000000000000D+00
    2.000000000000D+00 0.000000000000D+00-1.769512891769D-08 6.000000000000D+01
    4.321800000000D+04 4.000000000000D+00
10 12 10 28 13 59 44.0-5.665142089128D-05-1.250555214938D-12 0.000000000000D+00
    1.000000000000D+00 1.043437500000D+02 4.533760277885D-09-2.614623362038D+00
    5.329027771950D-06 1.184486853890D-02 9.495764970779D-06 5.153738000870D+03
    5.038400000000D+04 4.470348358154D-08-2.920726350993D+00-8.009374141693D-08
    9.452940503087D-01 1.884062500000D+02 7.680441762599D-01-7.913543916583D-09
    2.632252501025D-10 1.000000000000D+00 1.712000000000D+03 0.000000000000D+00
    2.000000000000D+00 0.000000000000D+00-2.793967723846D-09 1.000000000000D+00
    4.501800000000D+04 4.000000000000D+00
15 12 10 28 14  0  0.0-9.830668568611D-05-9.094947017729D-13 0.000000000000D+00
    8.400000000000D+01 2.778125000000D+01 5.258076162835D-09 2.035625459217D+00
    1.458451151848D-06 4.829906276427D-03 1.115724444389D-06 5.153653633118D+03
    5.040000000000D+04-4.470348358154D-08-1.917226590972D+00 5.029141902924D-08
    9.432533103094D-01 3.494687500000D+02 4.528962062020D-02-8.756436169285D-09
    6.857428496565D-11 1.000000000000D+00 1.712000000000D+03 0.000000000000D+00
    2.000000000000D+00 0.000000000000D+00-1.024454832077D-08 8.400000000000D+01
    4.534800000000D+04 4.000000000000D+00
12 12 10 28 14  0  0.0 9.859306737781D-05 2.046363078989D-12 0.000000000000D+00
    6.100000000000D+01 1.521875000000D+01 4.058740491404D-09-4.454926104068D-01
    8.605420589447D-07 4.001951427199D-03 1.131743192673D-05 5.153690196991D+03
    5.040000000000D+04 8.940696716309D-08 2.295529989695D-01 2.048909664154D-08
    9.819432554323D-01 1.744062500000D+02 1.470033039862D-01-7.717821478243D-09
    5.893102614235D-10 1.000000000000D+00 1.712000000000D+03 0.000000000000D+00
    2.000000000000D+00 0.000000000000D+00-1.210719347000D-08 6.100000000000D+01
    4.762800000000D+04 4.000000000000D+00
 9 12 10 28 14  0  0.0 1.956596970558D-04 2.728484105319D-12 0.000000000000D+00
    3.300000000000D+01-1.052187500000D+02 3.970879688792D-09-6.911388376210D-01
   -5.569308996201D-06 1.722249470185D-02 8.922070264816D-06 5.153663753510D+03
    5.040000000000D+04-1.713633537292D-07-8.517759397726D-01 7.636845111847D-08
    9.845295000283D-01 2.263125000000D+02 1.647162436756D+00-8.157125491304D-09
   -2.010798043524D-10 1.000000000000D+00 1.712000000000D+03 0.000000000000D+00
    2.000000000000D+00 0.000000000000D+00-5.587935447693D-09 3.300000000000D+01
    4.828800000000D+04 4.000000000000D+00
 5 12 10 28 16  0  0.0-3.627100959420D-04-2.614797267597D-12 0.000000000000D+00
    6.100000000000D+01 9.900000000000D+01 4.538046170695D-09-1.846697822582D+00
    5.109235644341D-06 3.009026288055D-03 9.538605809212D-06 5.153780950546D+03
    5.760000000000D+04-4.470348358154D-08-2.941442172153D+00 0.000000000000D+00
    9.504436579991D-01 1.922500000000D+02 2.473993253349D-01-8.013190924423D-09
    1.485776174256D-10 1.000000000000D+00 1.712000000000D+03 0.000000000000D+00
    2.000000000000D+00 0.000000000000D+00-1.024454832077D-08 6.100000000000D+01
    5.041800000000D+04 4.000000000000D+00
 8 12 10 28 16  0  0.0 2.594199031591D-06 2.273736754432D-13 0.000000000000D+00
    2.400000000000D+01-9.134375000000D+01 3.505146003400D-09 2.991591605170D-01
   -4.734843969345D-06 1.277493941598D-02 8.679926395416D-06 5.153640928268D+03
    5.760000000000D+04 1.750886440277D-07-7.405656169019D-01 1.415610313416D-07
    9.983461527131D-01 2.327500000000D+02-2.908388913295D+00-7.746394096979D-09
   -2.014369620866D-10 1.000000000000D+00 1.712000000000D+03 0.000000000000D+00
    2.000000000000D+00 0.000000000000D+00-4.190951585770D-09 2.400000000000D+01
    5.041800000000D+04 4.000000000000D+00
 4 12 10 28 16  0  0.0 2.956809476018D-05 1.114131009672D-11 0.000000000000D+00
    3.100000000000D+01-3.115625000000D+01 5.118427488764D-09-6.984872155733D-01
   -1.538544893265D-06 1.037404406816D-02 8.970499038696D-06 5.153681821823D+03
    5.760000000000D+04-1.862645149231D-08 2.294794065830D+00 2.179294824600D-07
    9.376971635364D-01 1.940625000000D+02 9.237155873191D-01-8.399635592824D-09
   -5.928818387655D-10 1.000000000000D+00 1.712000000000D+03 0.000000000000D+00
    2.000000000000D+00 0.000000000000D+00-6.519258022308D-09 3.100000000000D+01
    5.041800000000D+04 4.000000000000D+00
17 12 10 28 16  0  0.0 8.377572521567D-05-3.524291969370D-12 0.000000000000D+00
    6.500000000000D+01 4.906250000000D+00 5.002351225150D-09-2.541990033848D+00
    2.887099981308D-07 7.665643584915D-03 4.252418875694D-06 5.153745599747D+03
    5.760000000000D+04 1.657754182816D-07 1.286673367453D+00-1.173466444016D-07
    9.634417187805D-01 2.978125000000D+02-2.293404574535D+00-8.236057350562D-09
    1.342913080577D-10 1.000000000000D+00 1.712000000000D+03 0.000000000000D+00
    2.800000000000D+00 0.000000000000D+00-1.071020960808D-08 6.500000000000D+01
    5.041800000000D+04 4.000000000000D+00
10 12 10 28 15 59 44.0-5.665980279446D-05-1.250555214938D-12 0.000000000000D+00
    1.700000000000D+01 9.850000000000D+01 4.574476259583D-09-1.564485921404D+00
    5.101785063744D-06 1.184550870676D-02 9.182840585709D-06 5.153737298965D+03
    5.758400000000D+04 2.235174179077D-07-2.920782845964D+00-1.266598701477D-07
    9.452955454109D-01 1.943125000000D+02 7.680490902018D-01-7.979618097409D-09
    1.514348792991D-10 1.000000000000D+00 1.712000000000D+03 0.000000000000D+00
    2.000000000000D+00 0.000000000000D+00-2.793967723846D-09 1.700000000000D+01
    5.041800000000D+04 4.000000000000D+00
12 12 10 28 16  0  0.0 9.860750287771D-05 2.046363078989D-12 0.000000000000D+00
    6.200000000000D+01 1.662500000000D+01 3.985165998160D-09 6.046624671674D-01
    8.475035429001D-07 4.002319183201D-03 1.134350895882D-05 5.153690898895D+03
    5.760000000000D+04 8.195638656616D-08 2.294976362977D-01 1.024454832077D-07
    9.819476017619D-01 1.766562500000D+02 1.470152545640D-01-7.677819812013D-09
    5.653806932324D-10 1.000000000000D+00 1.712000000000D+03 0.000000000000D+00
    2.000000000000D+00 0.000000000000D+00-1.210719347000D-08 6.200000000000D+01
    5.041800000000D+04 4.000000000000D+00
15 12 10 28 16  0  0.0-9.831320494413D-05-9.094947017729D-13 0.000000000000D+00
    8.500000000000D+01 2.815625000000D+01 5.198430821224D-09 3.085827385280D+00
    1.508742570877D-06 4.830116406083D-03 1.268461346626D-06 5.153653278351D+03
    5.760000000000D+04-4.097819328308D-08-1.917289644204D+00-5.029141902924D-08
    9.432543036307D-01 3.475625000000D+02 4.528616813353D-02-8.668932524407D-09
    1.085759511956D-10 1.000000000000D+00 1.712000000000D+03 0.000000000000D+00
    2.000000000000D+00 0.000000000000D+00-1.024454832077D-08 8.500000000000D+01
    5.041800000000D+04 4.000000000000D+00
 2 12 10 28 16  0  0.0 4.072841256857D-04 1.136868377216D-12 0.000000000000D+00
    6.400000000000D+01-3.865625000000D+01 5.000565436479D-09 2.303668930041D+00
   -2.050772309303D-06 1.154442224652D-02 9.534880518913D-06 5.153782224655D+03
    5.760000000000D+04-2.812594175339D-07 2.278097509688D+00-2.421438694000D-08
    9.386305038081D-01 1.867187500000D+02-2.728283614798D+00-8.141053393266D-09
   -5.828814222080D-10 1.000000000000D+00 1.712000000000D+03 0.000000000000D+00
    2.000000000000D+00 0.000000000000D+00-1.769512891769D-08 6.400000000000D+01
    5.041800000000D+04 4.000000000000D+00
28 12 10 28 16  0  0.0 1.993137411773D-04 3.637978807092D-12 0.000000000000D+00
    4.100000000000D+01 2.240625000000D+01 3.890162040864D-09-1.865947283417D+00
    1.283362507820D-06 1.822179311421D-02 1.042895019054D-05 5.153634067535D+03
    5.760000000000D+04 3.203749656677D-07 2.542641810666D-01 1.378357410431D-07
    9.811024403404D-01 1.825625000000D+02-1.816615002792D+00-7.427809398076D-09
    5.875244727526D-10 1.000000000000D+00 1.712000000000D+03 0.000000000000D+00
    2.000000000000D+00 0.000000000000D+00-1.071020960808D-08 4.100000000000D+01
    5.041800000000D+04 4.000000000000D+00
 9 12 10 28 16  0  0.0 1.956797204912D-04 2.728484105319D-12 0.000000000000D+00
    5.100000000000D+01-1.015937500000D+02 3.967665269184D-09 3.590519541722D-01
   -5.515292286873D-06 1.722093520220D-02 8.158385753632D-06 5.153660825729D+03
    5.760000000000D+04-1.750886440277D-07-8.518339561777D-01-1.117587089539D-07
    9.845276187157D-01 2.378750000000D+02 1.647154598441D+00-8.155339702633D-09
   -3.457286867018D-10 1.000000000000D+00 1.712000000000D+03 0.000000000000D+00
    2.000000000000D+00 0.000000000000D+00-5.587935447693D-09 5.100000000000D+01
    5.041800000000D+04 4.000000000000D+00
26 12 10 28 16  0  0.0-2.301810309291D-04 1.352873368887D-11 0.000000000000D+00
    4.900000000000D+01 3.062500000000D+00 4.160173287916D-09 2.410650771589D+00
   -1.527369022369D-07 2.082925033756D-02 1.246109604836D-06 5.153657743454D+03
    5.760000000000D+04 2.104789018631D-07-1.803135982823D+00-2.551823854446D-07
    9.811970136055D-01 3.637812500000D+02 1.209995258028D+00-7.922472859938D-09
   -1.428630936784D-12 1.000000000000D+00 1.712000000000D+03 0.000000000000D+00
    2.800000000000D+00 0.000000000000D+00-6.053596735001D-09 4.900000000000D+01
    5.041800000000D+04 4.000000000000D+00
